ORBCOMM-X [-]           
1 21576U 91050C   23279.14036037  .00000744  00000+0  23901-3 0  9995
2 21576  98.4242 345.0966 0002555 251.4954 108.5958 14.42196896692937
ORBCOMM FM01 [-]        
1 23545U 95017A   23278.87969310  .00008054  00000+0  11587-2 0  9996
2 23545  69.9679 162.9541 0006067 207.0769 153.0063 14.76687680520913
ORBCOMM FM02 [-]        
1 23546U 95017B   23279.11802158  .00008723  00000+0  12680-2 0  9999
2 23546  69.9703 181.3976 0007376 193.7663 166.3284 14.76201898520552
ORBCOMM FM08 [-]        
1 25112U 97084A   23278.63171969  .00003350  00000+0  10690-2 0  9991
2 25112  45.0136  95.4010 0006762 359.0746   1.0090 14.41319210351887
ORBCOMM FM10 [-]        
1 25113U 97084B   23278.62792952  .00003212  00000+0  10282-2 0  9996
2 25113  45.0150  97.1327 0004431 326.3204  33.7363 14.41261996351872
ORBCOMM FM12 [-]        
1 25115U 97084D   23278.79343679  .00003145  00000+0  10100-2 0  9998
2 25115  45.0145  95.8892 0004186 329.0953  30.9649 14.41139563351654
